[{"OBJECT_NAME":"FLOCK 4BE-34","OBJECT_ID":"2024-149AD","EPOCH":"2026-03-09T21:53:21.305760","MEAN_MOTION":15.37994168,"ECCENTRICITY":0.00024574,"INCLINATION":97.3814,"RA_OF_ASC_NODE":152.5107,"ARG_OF_PERICENTER":258.491,"MEAN_ANOMALY":101.6059,"EPHEMERIS_TYPE":0,"CLASSIFICATION_TYPE":"U","NORAD_CAT_ID":60495,"ELEMENT_SET_NO":999,"REV_AT_EPOCH":8705,"BSTAR":0.00048986124,"MEAN_MOTION_DOT":0.00018248,"MEAN_MOTION_DDOT":0},{"OBJECT_NAME":"TAURUS R\/B","OBJECT_ID":"2000-014B","EPOCH":"2026-03-09T17:34:52.155840","MEAN_MOTION":15.39389421,"ECCENTRICITY":0.00149672,"INCLINATION":97.4179,"RA_OF_ASC_NODE":3.0855,"ARG_OF_PERICENTER":325.8693,"MEAN_ANOMALY":34.1589,"EPHEMERIS_TYPE":0,"CLASSIFICATION_TYPE":"U","NORAD_CAT_ID":26103,"ELEMENT_SET_NO":999,"REV_AT_EPOCH":43012,"BSTAR":0.00036037476,"MEAN_MOTION_DOT":0.0001407,"MEAN_MOTION_DDOT":0}]
